GLOBALSTAR M075 [+]     
1 37192U 10054E   24041.02892562 -.00000091  00000+0  70665-4 0  9995
2 37192  51.9923 243.0996 0000794  81.1144  83.9483 12.62270589614092
GLOBALSTAR M073 [+]     
1 37193U 10054F   24040.61925372 -.00000108  00000+0 -24536-4 0  9992
2 37193  52.0052 157.7832 0000830 106.8838 357.9474 12.62272061615557
GLOBALSTAR M083 [+]     
1 37739U 11033A   24041.16783299 -.00000081  00000+0  12564-3 0  9993
2 37739  51.9853 105.5202 0000634 143.8029 234.5355 12.62265748584958
GLOBALSTAR M088 [+]     
1 37740U 11033B   24041.07509760 -.00000106  00000+0 -13383-4 0  9994
2 37740  51.9760  11.7082 0000098 103.3340 333.9744 12.62264564580410
GLOBALSTAR M091 [+]     
1 37741U 11033C   24040.23682775 -.00000080  00000+0  13335-3 0  9996
2 37741  52.0024 336.9357 0000160  61.7391 104.0507 12.62270901580805
GLOBALSTAR M085 [+]     
1 37742U 11033D   24040.83763167 -.00000064  00000+0  22410-3 0  9994
2 37742  51.9867 286.5841 0000501  74.8441   1.9756 12.62267611581881
GLOBALSTAR M081 [+]     
1 37743U 11033E   24040.17081010 -.00000056  00000+0  26549-3 0  9990
2 37743  51.9961 291.0964 0000489  48.2148 117.3839 12.62269347581453
GLOBALSTAR M089 [+]     
1 37744U 11033F   24041.00194308 -.00000093  00000+0  61070-4 0  9999
2 37744  51.9904 242.8843 0001077  65.2055  99.2191 12.62254256582656
